[{"OBJECT_NAME":"UWE-3","OBJECT_ID":"2013-066AG","EPOCH":"2026-04-25T20:55:18.169248","MEAN_MOTION":14.96585865,"ECCENTRICITY":0.0050448,"INCLINATION":97.8653,"RA_OF_ASC_NODE":71.6258,"ARG_OF_PERICENTER":133.0034,"MEAN_ANOMALY":227.5431,"EPHEMERIS_TYPE":0,"CLASSIFICATION_TYPE":"U","NORAD_CAT_ID":39446,"ELEMENT_SET_NO":999,"REV_AT_EPOCH":66975,"BSTAR":0.00036881974,"MEAN_MOTION_DOT":4.247e-5,"MEAN_MOTION_DDOT":0},{"OBJECT_NAME":"UNISAT-6","OBJECT_ID":"2014-033C","EPOCH":"2026-04-25T22:53:03.963840","MEAN_MOTION":14.87929075,"ECCENTRICITY":0.0044138,"INCLINATION":97.7813,"RA_OF_ASC_NODE":269.6154,"ARG_OF_PERICENTER":239.6218,"MEAN_ANOMALY":120.0632,"EPHEMERIS_TYPE":0,"CLASSIFICATION_TYPE":"U","NORAD_CAT_ID":40012,"ELEMENT_SET_NO":999,"REV_AT_EPOCH":63839,"BSTAR":0.00038883184,"MEAN_MOTION_DOT":3.57e-5,"MEAN_MOTION_DDOT":0},{"OBJECT_NAME":"DUCHIFAT-1","OBJECT_ID":"2014-033M","EPOCH":"2026-04-25T16:10:40.045440","MEAN_MOTION":15.55855059,"ECCENTRICITY":0.00040494,"INCLINATION":98.0542,"RA_OF_ASC_NODE":167.8552,"ARG_OF_PERICENTER":235.8806,"MEAN_ANOMALY":124.2063,"EPHEMERIS_TYPE":0,"CLASSIFICATION_TYPE":"U","NORAD_CAT_ID":40021,"ELEMENT_SET_NO":999,"REV_AT_EPOCH":64756,"BSTAR":0.00094542862,"MEAN_MOTION_DOT":0.00065753,"MEAN_MOTION_DDOT":0},{"OBJECT_NAME":"QB50P1","OBJECT_ID":"2014-033R","EPOCH":"2026-04-25T22:30:31.563648","MEAN_MOTION":15.1741676,"ECCENTRICITY":0.00102235,"INCLINATION":98.0995,"RA_OF_ASC_NODE":123.4516,"ARG_OF_PERICENTER":53.1884,"MEAN_ANOMALY":307.0285,"EPHEMERIS_TYPE":0,"CLASSIFICATION_TYPE":"U","NORAD_CAT_ID":40025,"ELEMENT_SET_NO":999,"REV_AT_EPOCH":64510,"BSTAR":0.00051741009,"MEAN_MOTION_DOT":0.0001029,"MEAN_MOTION_DDOT":0},{"OBJECT_NAME":"LILACSAT-2","OBJECT_ID":"2015-049K","EPOCH":"2026-04-25T22:25:10.437312","MEAN_MOTION":15.49696794,"ECCENTRICITY":0.00088538,"INCLINATION":97.4734,"RA_OF_ASC_NODE":150.8387,"ARG_OF_PERICENTER":86.8978,"MEAN_ANOMALY":273.3286,"EPHEMERIS_TYPE":0,"CLASSIFICATION_TYPE":"U","NORAD_CAT_ID":40908,"ELEMENT_SET_NO":999,"REV_AT_EPOCH":58765,"BSTAR":0.00034941182,"MEAN_MOTION_DOT":0.00019326,"MEAN_MOTION_DDOT":0},{"OBJECT_NAME":"FOX-1A (AO-85)","OBJECT_ID":"2015-058D","EPOCH":"2026-04-25T23:04:49.966752","MEAN_MOTION":14.90639389,"ECCENTRICITY":0.01285603,"INCLINATION":64.7745,"RA_OF_ASC_NODE":81.2419,"ARG_OF_PERICENTER":77.0542,"MEAN_ANOMALY":284.4891,"EPHEMERIS_TYPE":0,"CLASSIFICATION_TYPE":"U","NORAD_CAT_ID":40967,"ELEMENT_SET_NO":999,"REV_AT_EPOCH":10578,"BSTAR":0.00034908319,"MEAN_MOTION_DOT":3.841e-5,"MEAN_MOTION_DDOT":0},{"OBJECT_NAME":"CAS-2T & KS-1Q","OBJECT_ID":"2016-066G","EPOCH":"2026-04-25T19:22:31.325664","MEAN_MOTION":14.44566894,"ECCENTRICITY":0.03409928,"INCLINATION":98.3831,"RA_OF_ASC_NODE":192.1339,"ARG_OF_PERICENTER":288.5659,"MEAN_ANOMALY":67.8779,"EPHEMERIS_TYPE":0,"CLASSIFICATION_TYPE":"U","NORAD_CAT_ID":41847,"ELEMENT_SET_NO":999,"REV_AT_EPOCH":49723,"BSTAR":0.00010151401,"MEAN_MOTION_DOT":6.49e-6,"MEAN_MOTION_DDOT":0},{"OBJECT_NAME":"RADFXSAT (FOX-1B)","OBJECT_ID":"2017-073E","EPOCH":"2026-04-25T14:28:53.004000","MEAN_MOTION":15.11739469,"ECCENTRICITY":0.01540666,"INCLINATION":97.4781,"RA_OF_ASC_NODE":343.916,"ARG_OF_PERICENTER":149.577,"MEAN_ANOMALY":211.4514,"EPHEMERIS_TYPE":0,"CLASSIFICATION_TYPE":"U","NORAD_CAT_ID":43017,"ELEMENT_SET_NO":999,"REV_AT_EPOCH":45744,"BSTAR":0.00037833607,"MEAN_MOTION_DOT":8.54e-5,"MEAN_MOTION_DDOT":0},{"OBJECT_NAME":"DIWATA-2B","OBJECT_ID":"2018-084H","EPOCH":"2026-04-25T22:46:13.581120","MEAN_MOTION":15.00189035,"ECCENTRICITY":0.00132946,"INCLINATION":98.1068,"RA_OF_ASC_NODE":309.9347,"ARG_OF_PERICENTER":348.7149,"MEAN_ANOMALY":11.3773,"EPHEMERIS_TYPE":0,"CLASSIFICATION_TYPE":"U","NORAD_CAT_ID":43678,"ELEMENT_SET_NO":999,"REV_AT_EPOCH":40838,"BSTAR":0.00020503025,"MEAN_MOTION_DOT":2.501e-5,"MEAN_MOTION_DDOT":0},{"OBJECT_NAME":"ES'HAIL 2","OBJECT_ID":"2018-090A","EPOCH":"2026-04-25T23:18:10.525824","MEAN_MOTION":1.00274273,"ECCENTRICITY":0.00012893,"INCLINATION":0.0339,"RA_OF_ASC_NODE":89.1787,"ARG_OF_PERICENTER":329.7351,"MEAN_ANOMALY":170.3966,"EPHEMERIS_TYPE":0,"CLASSIFICATION_TYPE":"U","NORAD_CAT_ID":43700,"ELEMENT_SET_NO":999,"REV_AT_EPOCH":2715,"BSTAR":0,"MEAN_MOTION_DOT":1.31e-6,"MEAN_MOTION_DDOT":0},{"OBJECT_NAME":"FOX-1CLIFF (AO-95)","OBJECT_ID":"2018-099N","EPOCH":"2026-04-25T16:32:10.085568","MEAN_MOTION":15.25544715,"ECCENTRICITY":0.00096349,"INCLINATION":97.4424,"RA_OF_ASC_NODE":176.1653,"ARG_OF_PERICENTER":163.742,"MEAN_ANOMALY":196.4129,"EPHEMERIS_TYPE":0,"CLASSIFICATION_TYPE":"U","NORAD_CAT_ID":43770,"ELEMENT_SET_NO":999,"REV_AT_EPOCH":40521,"BSTAR":0.00045457443,"MEAN_MOTION_DOT":0.00011478,"MEAN_MOTION_DDOT":0},{"OBJECT_NAME":"ITASAT","OBJECT_ID":"2018-099AE","EPOCH":"2026-04-25T15:22:53.259744","MEAN_MOTION":15.18357907,"ECCENTRICITY":0.00132662,"INCLINATION":97.4081,"RA_OF_ASC_NODE":168.216,"ARG_OF_PERICENTER":169.0938,"MEAN_ANOMALY":191.0587,"EPHEMERIS_TYPE":0,"CLASSIFICATION_TYPE":"U","NORAD_CAT_ID":43786,"ELEMENT_SET_NO":999,"REV_AT_EPOCH":40493,"BSTAR":0.00033024848,"MEAN_MOTION_DOT":6.733e-5,"MEAN_MOTION_DDOT":0},{"OBJECT_NAME":"JY1SAT (JO-97)","OBJECT_ID":"2018-099AX","EPOCH":"2026-04-25T20:52:16.491648","MEAN_MOTION":15.31960258,"ECCENTRICITY":0.00074826,"INCLINATION":97.4169,"RA_OF_ASC_NODE":178.5804,"ARG_OF_PERICENTER":100.2078,"MEAN_ANOMALY":260.0007,"EPHEMERIS_TYPE":0,"CLASSIFICATION_TYPE":"U","NORAD_CAT_ID":43803,"ELEMENT_SET_NO":999,"REV_AT_EPOCH":40561,"BSTAR":0.0006214641,"MEAN_MOTION_DOT":0.00019141,"MEAN_MOTION_DDOT":0},{"OBJECT_NAME":"UWE-4","OBJECT_ID":"2018-111E","EPOCH":"2026-04-25T17:39:38.342016","MEAN_MOTION":15.42922425,"ECCENTRICITY":0.00097919,"INCLINATION":97.5857,"RA_OF_ASC_NODE":41.846,"ARG_OF_PERICENTER":139.4628,"MEAN_ANOMALY":220.735,"EPHEMERIS_TYPE":0,"CLASSIFICATION_TYPE":"U","NORAD_CAT_ID":43880,"ELEMENT_SET_NO":999,"REV_AT_EPOCH":40268,"BSTAR":0.00067490626,"MEAN_MOTION_DOT":0.00029701,"MEAN_MOTION_DDOT":0},{"OBJECT_NAME":"TIANYAN 01","OBJECT_ID":"2019-093C","EPOCH":"2026-04-25T22:38:08.348352","MEAN_MOTION":14.86429129,"ECCENTRICITY":0.00121175,"INCLINATION":97.7542,"RA_OF_ASC_NODE":189.447,"ARG_OF_PERICENTER":258.1978,"MEAN_ANOMALY":101.7879,"EPHEMERIS_TYPE":0,"CLASSIFICATION_TYPE":"U","NORAD_CAT_ID":44881,"ELEMENT_SET_NO":999,"REV_AT_EPOCH":34365,"BSTAR":4.670102e-5,"MEAN_MOTION_DOT":3.59e-6,"MEAN_MOTION_DDOT":0},{"OBJECT_NAME":"RS-44 & BREEZE-KM R/B","OBJECT_ID":"2019-096E","EPOCH":"2026-04-25T18:43:17.781888","MEAN_MOTION":12.79747976,"ECCENTRICITY":0.02163732,"INCLINATION":82.5261,"RA_OF_ASC_NODE":14.5305,"ARG_OF_PERICENTER":266.9379,"MEAN_ANOMALY":90.6945,"EPHEMERIS_TYPE":0,"CLASSIFICATION_TYPE":"U","NORAD_CAT_ID":44909,"ELEMENT_SET_NO":999,"REV_AT_EPOCH":29564,"BSTAR":-2.2321587e-5,"MEAN_MOTION_DOT":4.0e-8,"MEAN_MOTION_DDOT":0}]
