UWE-3                   
1 39446U 13066AG  26115.87173807  .00004247  00000+0  36882-3 0  9994
2 39446  97.8653  71.6258 0050448 133.0034 227.5431 14.96585865669754
UNISAT-6                
1 40012U 14033C   26115.95351810  .00003570  00000+0  38883-3 0  9992
2 40012  97.7813 269.6154 0044138 239.6218 120.0632 14.87929075638393
DUCHIFAT-1              
1 40021U 14033M   26115.67407460  .00065753  00000+0  94543-3 0  9990
2 40021  98.0542 167.8552 0004049 235.8806 124.2063 15.55855059647564
QB50P1                  
1 40025U 14033R   26115.93786532  .00010290  00000+0  51741-3 0  9992
2 40025  98.0995 123.4516 0010223  53.1884 307.0285 15.17416760645101
LILACSAT-2              
1 40908U 15049K   26115.93414858  .00019326  00000+0  34941-3 0  9991
2 40908  97.4734 150.8387 0008853  86.8978 273.3286 15.49696794587651
FOX-1A (AO-85)          
1 40967U 15058D   26115.96168943  .00003841  00000+0  34908-3 0  9998
2 40967  64.7745  81.2419 0128560  77.0542 284.4891 14.90639389105782
CAS-2T & KS-1Q          
1 41847U 16066G   26115.80730701  .00000649  00000+0  10151-3 0  9993
2 41847  98.3831 192.1339 0340992 288.5659  67.8779 14.44566894497236
RADFXSAT (FOX-1B)       
1 43017U 17073E   26115.60339125  .00008540  00000+0  37834-3 0  9991
2 43017  97.4781 343.9160 0154066 149.5770 211.4514 15.11739469457442
DIWATA-2B               
1 43678U 18084H   26115.94876830  .00002501  00000+0  20503-3 0  9999
2 43678  98.1068 309.9347 0013294 348.7149  11.3773 15.00189035408389
ES'HAIL 2               
1 43700U 18090A   26115.97095516  .00000131  00000+0  00000+0 0  9992
2 43700   0.0339  89.1787 0001289 329.7351 170.3966  1.00274273 27154
FOX-1CLIFF (AO-95)      
1 43770U 18099N   26115.68900562  .00011478  00000+0  45457-3 0  9997
2 43770  97.4424 176.1653 0009634 163.7420 196.4129 15.25544715405210
ITASAT                  
1 43786U 18099AE  26115.64089421  .00006733  00000+0  33025-3 0  9998
2 43786  97.4081 168.2160 0013266 169.0938 191.0587 15.18357907404934
JY1SAT (JO-97)          
1 43803U 18099AX  26115.86963532  .00019141  00000+0  62146-3 0  9999
2 43803  97.4169 178.5804 0007482 100.2078 260.0007 15.31960258405619
UWE-4                   
1 43880U 18111E   26115.73586044  .00029701  00000+0  67491-3 0  9995
2 43880  97.5857  41.8460 0009791 139.4628 220.7350 15.42922425402683
TIANYAN 01              
1 44881U 19093C   26115.94315218  .00000359  00000+0  46701-4 0  9993
2 44881  97.7542 189.4470 0012117 258.1978 101.7879 14.86429129343656
RS-44 & BREEZE-KM R/B   
1 44909U 19096E   26115.78006692  .00000004  00000+0 -22322-4 0  9993
2 44909  82.5261  14.5305 0216373 266.9379  90.6945 12.79747976295642
